NORAD_CAT_ID,OBJECT_NAME,OBJECT_TYPE,EPOCH,MEAN_MOTION,ECCENTRICITY,INCLINATION,RA_OF_ASC_NODE,ARG_OF_PERICENTER,MEAN_ANOMALY,BSTAR,MEAN_MOTION_DOT,MEAN_MOTION_DDOT,TLE_LINE0,TLE_LINE1,TLE_LINE2,SEMIMAJOR_AXIS,PERIOD,APOGEE,PERIGEE,DECAYED
52631.0,STARLINK-3794,PAYLOAD,2024-08-01 11:28:34,15.08842388,0.0001451,53.2174,16.2458,101.1199,258.9957,0.00010294,1.351e-05,0.0,0 STARLINK-3794,1 52631U 22052AK  24214.47817362  .00001351  00000-0  10294-3 0  9998,2 52631  53.2174  16.2458 0001451 101.1199 258.9957 15.08842388122658,6917.873,95.437,540.742,538.734,0.0
52631.0,STARLINK-3794,PAYLOAD,2024-08-01 21:00:52,15.08852562,0.0001309,53.2176,14.4616,86.515,273.5992,0.00024495,3.614e-05,0.0,0 STARLINK-3794,1 52631U 22052AK  24214.87560798  .00003614  00000-0  24495-3 0  9992,2 52631  53.2176  14.4616 0001309  86.5150 273.5992 15.08852562123086,6917.842,95.437,540.613,538.801,0.0
52631.0,STARLINK-3794,PAYLOAD,2024-08-02 11:19:21,15.08831362,8.64e-05,53.2175,11.7864,70.9055,289.203,1.9301e-05,1.9e-07,0.0,0 STARLINK-3794,1 52631U 22052AK  24215.47177968  .00000019  00000-0  19301-4 0  9999,2 52631  53.2175  11.7864 0000864  70.9055 289.2030 15.08831362123178,6917.907,95.438,540.369,539.174,0.0
52631.0,STARLINK-3794,PAYLOAD,2024-08-02 14:30:08,15.08832061,0.0001354,53.2175,11.1917,80.6494,279.4651,-3.2752e-05,-8.09e-06,0.0,0 STARLINK-3794,1 52631U 22052AK  24215.60425949 -.00000809  00000-0 -32752-4 0  9993,2 52631  53.2175  11.1917 0001354  80.6494 279.4651 15.08832061122829,6917.905,95.438,540.706,538.833,0.0
52631.0,STARLINK-3794,PAYLOAD,2024-08-02 19:16:17,15.08835919,0.0001417,53.2173,10.2996,86.6703,273.4451,5.4929e-05,5.86e-06,0.0,0 STARLINK-3794,1 52631U 22052AK  24215.80297949  .00000586  00000-0  54929-4 0  9992,2 52631  53.2173  10.2996 0001417  86.6703 273.4451 15.08835919122853,6917.893,95.438,540.738,538.778,0.0
52631.0,STARLINK-3794,PAYLOAD,2024-08-03 03:13:12,15.0884657,0.000142,53.2177,8.8129,86.2531,273.8623,0.00025297,3.741e-05,0.0,0 STARLINK-3794,1 52631U 22052AK  24216.13417618  .00003741  00000-0  25297-3 0  9997,2 52631  53.2177   8.8129 0001420  86.2531 273.8623 15.08846570123274,6917.86,95.437,540.708,538.743,0.0
52631.0,STARLINK-3794,PAYLOAD,2024-08-03 14:20:55,15.08840222,0.0001544,53.2185,6.7328,90.1092,270.0077,0.0001752,2.501e-05,0.0,0 STARLINK-3794,1 52631U 22052AK  24216.59785956  .00002501  00000-0  17520-3 0  9993,2 52631  53.2185   6.7328 0001544  90.1092 270.0077 15.08840222122970,6917.88,95.438,540.813,538.677,0.0
52631.0,STARLINK-3794,PAYLOAD,2024-08-03 19:07:04,15.08852769,0.0001643,53.2183,5.8372,78.7663,281.3513,0.00052525,8.084e-05,0.0,0 STARLINK-3794,1 52631U 22052AK  24216.79657574  .00008084  00000-0  52525-3 0  9995,2 52631  53.2183   5.8372 0001643  78.7663 281.3513 15.08852769123007,6917.841,95.437,540.843,538.57,0.0
52631.0,STARLINK-3794,PAYLOAD,2024-08-04 14:11:41,15.08840026,0.0001524,53.2168,2.2707,98.1762,261.9403,0.00023839,3.508e-05,0.0,0 STARLINK-3794,1 52631U 22052AK  24217.59145720  .00003508  00000-0  23839-3 0  9991,2 52631  53.2168   2.2707 0001524  98.1762 261.9403 15.08840026123125,6917.88,95.438,540.8,538.691,0.0
52631.0,STARLINK-3794,PAYLOAD,2024-08-04 18:57:51,15.08854412,0.0001378,53.2166,1.3792,93.2999,266.815,0.0024437,0.00038833,0.0,0 STARLINK-3794,1 52631U 22052AK  24217.79017717  .00038833  00000-0  24437-2 0  9990,2 52631  53.2166   1.3792 0001378  93.2999 266.8150 15.08854412123523,6917.836,95.437,540.655,538.748,0.0
52631.0,STARLINK-3794,PAYLOAD,2024-08-05 02:54:46,15.08896833,0.0001482,53.2168,359.8835,95.449,264.6672,0.0036555,0.00058463,0.0,0 STARLINK-3794,1 52631U 22052AK  24218.12136901  .00058463  00000-0  36555-2 0  9990,2 52631  53.2168 359.8835 0001482  95.4490 264.6672 15.08896833123573,6917.707,95.434,540.597,538.546,0.0
52631.0,STARLINK-3794,PAYLOAD,2024-08-05 15:37:52,15.08822582,0.0001131,53.2179,357.5132,87.7844,272.3277,0.00064319,9.958e-05,0.0,0 STARLINK-3794,1 52631U 22052AK  24218.65129911  .00009958  00000-0  64319-3 0  9996,2 52631  53.2179 357.5132 0001131  87.7844 272.3277 15.08822582123654,6917.934,95.439,540.581,539.016,0.0
52631.0,STARLINK-3794,PAYLOAD,2024-08-06 02:45:34,15.08845569,0.0001589,53.2179,355.4286,95.0763,265.0411,0.00096756,0.00015147,0.0,0 STARLINK-3794,1 52631U 22052AK  24219.11497846  .00015147  00000-0  96756-3 0  9990,2 52631  53.2179 355.4286 0001589  95.0763 265.0411 15.08845569123727,6917.863,95.437,540.828,538.629,0.0
52631.0,STARLINK-3794,PAYLOAD,2024-08-06 09:07:07,15.08847677,0.0003126,53.2186,354.2403,86.8247,273.3103,0.0010881,0.00017076,0.0,0 STARLINK-3794,1 52631U 22052AK  24219.37994575  .00017076  00000-0  10881-2 0  9996,2 52631  53.2186 354.2403 0003126  86.8247 273.3103 15.08847677123763,6917.857,95.437,541.884,537.559,0.0
52631.0,STARLINK-3794,PAYLOAD,2024-08-06 15:28:39,15.0883541,0.0001706,53.2172,353.052,90.4087,269.71,0.0017079,0.00026994,0.0,0 STARLINK-3794,1 52631U 22052AK  24219.64490637  .00026994  00000-0  17079-2 0  9991,2 52631  53.2172 353.0520 0001706  90.4087 269.7100 15.08835410123432,6917.894,95.438,540.94,538.579,0.0
52631.0,STARLINK-3794,PAYLOAD,2024-08-07 12:08:40,15.08849011,0.0001642,53.2188,349.1876,89.5839,270.5342,0.00087645,0.00013692,0.0,0 STARLINK-3794,1 52631U 22052AK  24220.50602784  .00013692  00000-0  87645-3 0  9994,2 52631  53.2188 349.1876 0001642  89.5839 270.5342 15.08849011123937,6917.853,95.437,540.854,538.582,0.0
52631.0,STARLINK-3794,PAYLOAD,2024-08-07 15:19:27,15.08849917,0.0001587,53.2188,348.5932,87.9339,272.1835,0.00075461,0.00011745,0.0,0 STARLINK-3794,1 52631U 22052AK  24220.63850731  .00011745  00000-0  75461-3 0  9995,2 52631  53.2188 348.5932 0001587  87.9339 272.1835 15.08849917123589,6917.85,95.437,540.813,538.617,0.0
52631.0,STARLINK-3794,PAYLOAD,2024-08-08 13:34:50,15.08848458,0.0001421,53.2188,344.4305,100.7407,259.3745,0.00022724,3.331e-05,0.0,0 STARLINK-3794,1 52631U 22052AK  24221.56586087  .00003331  00000-0  22724-3 0  9994,2 52631  53.2188 344.4305 0001421 100.7407 259.3745 15.08848458123727,6917.855,95.437,540.703,538.737,0.0
52631.0,STARLINK-3794,PAYLOAD,2024-08-08 15:10:13,15.08849671,0.0001413,53.2186,344.1314,103.7602,256.3547,0.00026866,3.991e-05,0.0,0 STARLINK-3794,1 52631U 22052AK  24221.63210028  .00003991  00000-0  26866-3 0  9994,2 52631  53.2186 344.1314 0001413 103.7602 256.3547 15.08849671124101,6917.851,95.437,540.693,538.738,0.0
52631.0,STARLINK-3794,PAYLOAD,2024-08-09 00:42:31,15.08874311,0.0001286,53.2191,342.3508,107.142,252.9713,0.0014959,0.00023622,0.0,0 STARLINK-3794,1 52631U 22052AK  24222.02953344  .00023622  00000-0  14959-2 0  9995,2 52631  53.2191 342.3508 0001286 107.1420 252.9713 15.08874311124168,6917.776,95.435,540.53,538.751,0.0
52631.0,STARLINK-3794,PAYLOAD,2024-08-09 11:50:14,15.08841734,0.0001369,53.2177,340.2616,97.9966,262.1182,0.00016079,2.272e-05,0.0,0 STARLINK-3794,1 52631U 22052AK  24222.49321950  .00002272  00000-0  16079-3 0  9992,2 52631  53.2177 340.2616 0001369  97.9966 262.1182 15.08841734124236,6917.875,95.437,540.687,538.793,0.0
52631.0,STARLINK-3794,PAYLOAD,2024-08-09 15:01:00,15.08835728,0.000135,53.2192,339.6776,96.2766,263.838,0.0015458,0.00024396,0.0,0 STARLINK-3794,1 52631U 22052AK  24222.62570240  .00024396  00000-0  15458-2 0  9995,2 52631  53.2192 339.6776 0001350  96.2766 263.8380 15.08835728123886,6917.893,95.438,540.692,538.825,0.0
52631.0,STARLINK-3794,PAYLOAD,2024-08-09 18:11:46,15.08850384,0.0001312,53.2189,339.0792,75.726,284.3878,0.0025059,0.0003983,0.0,0 STARLINK-3794,1 52631U 22052AK  24222.75818155  .00039830  00000-0  25059-2 0  9996,2 52631  53.2189 339.0792 0001312  75.7260 284.3878 15.08850384123901,6917.849,95.437,540.621,538.806,0.0
52631.0,STARLINK-3794,PAYLOAD,2024-08-10 11:41:01,15.08842509,7.27e-05,53.2174,335.8001,140.4084,219.6961,0.00083538,0.00013033,0.0,0 STARLINK-3794,1 52631U 22052AK  24223.48682272  .00013033  00000-0  83538-3 0  9990,2 52631  53.2174 335.8001 0000727 140.4084 219.6961 15.08842509124382,6917.873,95.437,540.241,539.235,0.0
52631.0,STARLINK-3794,PAYLOAD,2024-08-10 14:51:48,15.08834769,0.0001333,53.2181,335.2072,55.7698,304.342,0.00025759,3.813e-05,0.0,0 STARLINK-3794,1 52631U 22052AK  24223.61930771  .00003813  00000-0  25759-3 0  9991,2 52631  53.2181 335.2072 0001333  55.7698 304.3420 15.08834769124038,6917.896,95.438,540.684,538.839,0.0
52631.0,STARLINK-3794,PAYLOAD,2024-08-11 00:24:06,15.08861401,9.67e-05,53.2168,333.4276,68.2981,291.8114,0.0008523,0.0001331,0.0,0 STARLINK-3794,1 52631U 22052AK  24224.01673751  .00013310  00000-0  85230-3 0  9991,2 52631  53.2168 333.4276 0000967  68.2981 291.8114 15.08861401124465,6917.815,95.436,540.349,539.011,0.0
52631.0,STARLINK-3794,PAYLOAD,2024-08-11 16:17:59,15.08815778,9.09e-05,53.2172,330.4575,97.1046,263.0049,-0.00016117,-2.85e-05,0.0,0 STARLINK-3794,1 52631U 22052AK  24224.67915683 -.00002850  00000-0 -16117-3 0  9993,2 52631  53.2172 330.4575 0000909  97.1046 263.0049 15.08815778124563,6917.954,95.439,540.448,539.191,0.0
52631.0,STARLINK-3794,PAYLOAD,2024-08-12 00:14:55,15.08830977,0.0001196,53.2177,328.9685,94.3522,265.7606,0.0013132,0.00020668,0.0,0 STARLINK-3794,1 52631U 22052AK  24225.01036180  .00020668  00000-0  13132-2 0  9996,2 52631  53.2177 328.9685 0001196  94.3522 265.7606 15.08830977124611,6917.908,95.438,540.6,538.946,0.0
52631.0,STARLINK-3794,PAYLOAD,2024-08-12 12:58:00,15.08896355,0.0002563,53.2159,326.5936,79.1666,280.9615,0.0033971,0.00054279,0.0,0 STARLINK-3794,1 52631U 22052AK  24225.54027810  .00054279  00000-0  33971-2 0  9992,2 52631  53.2159 326.5936 0002563  79.1666 280.9615 15.08896355124692,6917.708,95.434,541.346,537.8,0.0
52631.0,STARLINK-3794,PAYLOAD,2024-08-13 00:05:39,15.08971236,0.0002155,53.215,324.5099,81.7808,278.3428,0.004983,0.00080209,0.0,0 STARLINK-3794,1 52631U 22052AK  24226.00392912  .00080209  00000-0  49830-2 0  9995,2 52631  53.2150 324.5099 0002155  81.7808 278.3428 15.08971236124768,6917.479,95.429,540.835,537.854,0.0
